NORAD_CAT_ID,OBJECT_NAME,OBJECT_TYPE,EPOCH,MEAN_MOTION,ECCENTRICITY,INCLINATION,RA_OF_ASC_NODE,ARG_OF_PERICENTER,MEAN_ANOMALY,BSTAR,MEAN_MOTION_DOT,MEAN_MOTION_DDOT,TLE_LINE0,TLE_LINE1,TLE_LINE2,SEMIMAJOR_AXIS,PERIOD,APOGEE,PERIGEE,DECAYED
49738.0,STARLINK-3143,PAYLOAD,2024-04-30 19:08:06,15.08843119,0.000113,53.2177,312.4995,76.4594,283.6524,0.00014929,2.089e-05,0.0,0 STARLINK-3143,1 49738U 21115Q   24121.79729847  .00002089  00000-0  14929-3 0  9991,2 49738  53.2177 312.4995 0001130  76.4594 283.6524 15.08843119134302,6917.871,95.437,540.518,538.954,0.0
49738.0,STARLINK-3143,PAYLOAD,2024-04-30 22:18:52,15.08847041,0.0001084,53.2178,311.904,79.946,280.1654,0.0001737,2.478e-05,0.0,0 STARLINK-3143,1 49738U 21115Q   24121.92977510  .00002478  00000-0  17370-3 0  9993,2 49738  53.2178 311.9040 0001084  79.9460 280.1654 15.08847041133219,6917.859,95.437,540.474,538.974,0.0
49738.0,STARLINK-3143,PAYLOAD,2024-05-01 12:37:21,15.08831042,0.0001176,53.2187,309.2278,87.2558,272.8568,0.00030583,4.582e-05,0.0,0 STARLINK-3143,1 49738U 21115Q   24122.52594238  .00004582  00000-0  30583-3 0  9991,2 49738  53.2187 309.2278 0001176  87.2558 272.8568 15.08831042134413,6917.908,95.438,540.586,538.959,0.0
49738.0,STARLINK-3143,PAYLOAD,2024-05-01 18:58:53,15.08838663,0.0001172,53.2185,308.0384,87.739,272.3736,0.00033141,4.99e-05,0.0,0 STARLINK-3143,1 49738U 21115Q   24122.79089746  .00004990  00000-0  33141-3 0  9999,2 49738  53.2185 308.0384 0001172  87.7390 272.3736 15.08838663134453,6917.884,95.438,540.56,538.939,0.0
49738.0,STARLINK-3143,PAYLOAD,2024-05-02 12:28:08,15.08839449,0.0001117,53.2168,304.7683,302.4848,57.6037,3.0397e-05,1.96e-06,0.0,0 STARLINK-3143,1 49738U 21115Q   24123.51953962  .00000196  00000-0  30397-4 0  9995,2 49738  53.2168 304.7683 0001117 302.4848  57.6037 15.08839449133453,6917.882,95.438,540.52,538.974,0.0
49738.0,STARLINK-3143,PAYLOAD,2024-05-02 18:49:40,15.08836975,9.45e-05,53.2164,303.5802,78.4262,281.6836,6.7081e-06,-1.81e-06,0.0,0 STARLINK-3143,1 49738U 21115Q   24123.78450137 -.00000181  00000-0  67081-5 0  9996,2 49738  53.2164 303.5802 0000945  78.4262 281.6836 15.08836975134602,6917.89,95.438,540.408,539.101,0.0
49738.0,STARLINK-3143,PAYLOAD,2024-05-03 10:43:32,15.08836094,0.0001209,53.2177,300.6048,86.3068,273.8062,-4.5242e-06,-3.6e-06,0.0,0 STARLINK-3143,1 49738U 21115Q   24124.44690285 -.00000360  00000-0 -45242-5 0  9995,2 49738  53.2177 300.6048 0001209  86.3068 273.8062 15.08836094133595,6917.892,95.438,540.594,538.921,0.0
49738.0,STARLINK-3143,PAYLOAD,2024-05-03 18:40:27,15.08843225,0.0001365,53.2174,299.1193,85.3496,274.7652,-1.4104e-05,-5.12e-06,0.0,0 STARLINK-3143,1 49738U 21115Q   24124.77809870 -.00000512  00000-0 -14104-4 0  9994,2 49738  53.2174 299.1193 0001365  85.3496 274.7652 15.08843225133647,6917.871,95.437,540.68,538.791,0.0
49738.0,STARLINK-3143,PAYLOAD,2024-05-04 04:12:46,15.0883317,0.0001152,53.2173,297.3356,87.7373,272.3751,4.8443e-05,4.83e-06,0.0,0 STARLINK-3143,1 49738U 21115Q   24125.17554397  .00000483  00000-0  48443-4 0  9998,2 49738  53.2173 297.3356 0001152  87.7373 272.3751 15.08833170134813,6917.901,95.438,540.563,538.969,0.0
49738.0,STARLINK-3143,PAYLOAD,2024-05-05 10:25:06,15.08835526,0.0001252,53.2182,291.6848,101.6178,258.4955,4.9585e-05,5.01e-06,0.0,0 STARLINK-3143,1 49738U 21115Q   24126.43410816  .00000501  00000-0  49585-4 0  9994,2 49738  53.2182 291.6848 0001252 101.6178 258.4955 15.08835526135006,6917.894,95.438,540.625,538.893,0.0
49738.0,STARLINK-3143,PAYLOAD,2024-05-05 18:22:02,15.08840459,0.0001207,53.2179,290.1977,92.5948,267.5182,5.0632e-05,5.18e-06,0.0,0 STARLINK-3143,1 49738U 21115Q   24126.76530647  .00000518  00000-0  50632-4 0  9998,2 49738  53.2179 290.1977 0001207  92.5948 267.5182 15.08840459133947,6917.879,95.438,540.579,538.909,0.0
49738.0,STARLINK-3143,PAYLOAD,2024-05-06 15:02:02,15.08841784,0.0001274,53.2179,286.3321,98.5239,261.5898,0.00023797,3.502e-05,0.0,0 STARLINK-3143,1 49738U 21115Q   24127.62642143  .00003502  00000-0  23797-3 0  9996,2 49738  53.2179 286.3321 0001274  98.5239 261.5898 15.08841784134075,6917.875,95.437,540.621,538.859,0.0
49738.0,STARLINK-3143,PAYLOAD,2024-05-06 18:12:48,15.08853448,0.0001138,53.2175,285.7364,81.0643,279.0478,0.00017635,2.521e-05,0.0,0 STARLINK-3143,1 49738U 21115Q   24127.75889535  .00002521  00000-0  17635-3 0  9992,2 49738  53.2175 285.7364 0001138  81.0643 279.0478 15.08853448135200,6917.839,95.437,540.492,538.917,0.0
49738.0,STARLINK-3143,PAYLOAD,2024-05-07 03:45:07,15.08845302,0.0001215,53.2188,283.9533,92.2692,267.8439,0.00013261,1.824e-05,0.0,0 STARLINK-3143,1 49738U 21115Q   24128.15634092  .00001824  00000-0  13261-3 0  9999,2 49738  53.2188 283.9533 0001215  92.2692 267.8439 15.08845302135264,6917.864,95.437,540.57,538.889,0.0
49738.0,STARLINK-3143,PAYLOAD,2024-05-07 14:52:50,15.08837798,0.0001604,53.2178,281.8716,90.7101,269.4075,5.6321e-05,6.08e-06,0.0,0 STARLINK-3143,1 49738U 21115Q   24128.62002831  .00000608  00000-0  56321-4 0  9995,2 49738  53.2178 281.8716 0001604  90.7101 269.4075 15.08837798134222,6917.887,95.438,540.862,538.642,0.0
49738.0,STARLINK-3143,PAYLOAD,2024-05-07 16:28:13,15.08838648,0.0001244,53.218,281.574,95.675,264.4384,1.0042e-05,-1.28e-06,0.0,0 STARLINK-3143,1 49738U 21115Q   24128.68626797 -.00000128  00000-0  10042-4 0  9992,2 49738  53.2180 281.5740 0001244  95.6750 264.4384 15.08838648135340,6917.885,95.438,540.61,538.889,0.0
49738.0,STARLINK-3143,PAYLOAD,2024-05-08 14:43:36,15.08851826,0.0001177,53.2181,277.4107,88.6866,271.4261,7.5163e-06,-1.68e-06,0.0,0 STARLINK-3143,1 49738U 21115Q   24129.61361925 -.00000168  00000-0  75163-5 0  9995,2 49738  53.2181 277.4107 0001177  88.6866 271.4261 15.08851826134374,6917.844,95.437,540.523,538.895,0.0
49738.0,STARLINK-3143,PAYLOAD,2024-05-08 16:18:59,15.08851724,0.0001054,53.2173,277.1133,99.2253,260.8858,5.2379e-05,5.46e-06,0.0,0 STARLINK-3143,1 49738U 21115Q   24129.67985684  .00000546  00000-0  52379-4 0  9997,2 49738  53.2173 277.1133 0001054  99.2253 260.8858 15.08851724135498,6917.845,95.437,540.439,538.98,0.0
49738.0,STARLINK-3143,PAYLOAD,2024-05-09 12:59:01,15.08833906,0.0001243,53.217,273.2478,97.9287,262.1846,0.00010582,1.396e-05,0.0,0 STARLINK-3143,1 49738U 21115Q   24130.54098943  .00001396  00000-0  10582-3 0  9991,2 49738  53.2170 273.2478 0001243  97.9287 262.1846 15.08833906135625,6917.899,95.438,540.624,538.904,0.0
49738.0,STARLINK-3143,PAYLOAD,2024-05-09 14:34:24,15.08833924,0.0001248,53.2175,272.9503,99.9389,260.1744,0.00011454,1.535e-05,0.0,0 STARLINK-3143,1 49738U 21115Q   24130.60722913  .00001535  00000-0  11454-3 0  9993,2 49738  53.2175 272.9503 0001248  99.9389 260.1744 15.08833924134528,6917.899,95.438,540.627,538.901,0.0
49738.0,STARLINK-3143,PAYLOAD,2024-05-09 16:09:47,15.08837617,0.0001001,53.2167,272.6534,81.9202,278.1904,0.00013302,1.83e-05,0.0,0 STARLINK-3143,1 49738U 21115Q   24130.67346706  .00001830  00000-0  13302-3 0  9994,2 49738  53.2167 272.6534 0001001  81.9202 278.1904 15.08837617134533,6917.888,95.438,540.445,539.06,0.0
49738.0,STARLINK-3143,PAYLOAD,2024-05-10 12:49:48,15.08846565,0.0001233,53.2174,268.7871,81.9707,278.1425,0.00012773,1.746e-05,0.0,0 STARLINK-3143,1 49738U 21115Q   24131.53458426  .00001746  00000-0  12773-3 0  9990,2 49738  53.2174 268.7871 0001233  81.9707 278.1425 15.08846565135775,6917.86,95.437,540.578,538.872,0.0
49738.0,STARLINK-3143,PAYLOAD,2024-05-10 19:11:20,15.08862131,0.0001234,53.2168,267.6001,71.1089,289.0037,0.00040535,6.173e-05,0.0,0 STARLINK-3143,1 49738U 21115Q   24131.79953820  .00006173  00000-0  40535-3 0  9992,2 49738  53.2168 267.6001 0001234  71.1089 289.0037 15.08862131135818,6917.813,95.436,540.531,538.824,0.0
49738.0,STARLINK-3143,PAYLOAD,2024-05-11 12:40:34,15.08833139,0.0001515,53.2172,264.3262,36.762,323.3476,-0.00041141,-6.828e-05,0.0,0 STARLINK-3143,1 49738U 21115Q   24132.52817730 -.00006828  00000-0 -41141-3 0  9996,2 49738  53.2172 264.3262 0001515  36.7620 323.3476 15.08833139135923,6917.901,95.438,540.814,538.718,0.0
49738.0,STARLINK-3143,PAYLOAD,2024-05-11 15:51:22,15.08787828,0.0002249,53.2172,263.7301,90.6378,269.4872,-0.0018927,-0.00030243,0.0,0 STARLINK-3143,1 49738U 21115Q   24132.66067216 -.00030243  00000-0 -18927-2 0  9990,2 49738  53.2172 263.7301 0002249  90.6378 269.4872 15.08787828135949,6918.04,95.441,541.461,538.349,0.0
49738.0,STARLINK-3143,PAYLOAD,2024-05-12 01:23:43,15.08736473,0.0001795,53.2165,261.9505,87.6008,272.519,-0.002432,-0.00038677,0.0,0 STARLINK-3143,1 49738U 21115Q   24133.05814365 -.00038677  00000-0 -24320-2 0  9992,2 49738  53.2165 261.9505 0001795  87.6008 272.5190 15.08736473136004,6918.197,95.444,541.304,538.82,0.0
49738.0,STARLINK-3143,PAYLOAD,2024-05-12 12:31:27,15.0874362,0.0001658,53.2167,259.8677,84.5839,275.5343,1.8713e-05,9e-08,0.0,0 STARLINK-3143,1 49738U 21115Q   24133.52184942  .00000009  00000-0  18713-4 0  9992,2 49738  53.2167 259.8677 0001658  84.5839 275.5343 15.08743620136070,6918.175,95.444,541.187,538.893,0.0
49738.0,STARLINK-3143,PAYLOAD,2024-05-12 14:06:50,15.08758955,0.0002019,53.217,259.5705,83.3009,276.8213,-0.00037239,-6.197e-05,0.0,0 STARLINK-3143,1 49738U 21115Q   24133.58809020 -.00006197  00000-0 -37239-3 0  9998,2 49738  53.2170 259.5705 0002019  83.3009 276.8213 15.08758955134975,6918.128,95.443,541.39,538.596,0.0
49738.0,STARLINK-3143,PAYLOAD,2024-05-12 15:42:13,15.08779095,0.0001579,53.2167,259.273,89.514,270.6033,0.00032186,4.83e-05,0.0,0 STARLINK-3143,1 49738U 21115Q   24133.65432639  .00004830  00000-0  32186-3 0  9990,2 49738  53.2167 259.2730 0001579  89.5140 270.6033 15.08779095136095,6918.067,95.441,541.024,538.839,0.0
49738.0,STARLINK-3143,PAYLOAD,2024-05-13 01:14:33,15.08798649,0.0001719,53.2167,257.4884,89.9378,270.1811,0.0012801,0.0002012,0.0,0 STARLINK-3143,1 49738U 21115Q   24134.05177811  .00020120  00000-0  12801-2 0  9994,2 49738  53.2167 257.4884 0001719  89.9378 270.1811 15.08798649136150,6918.007,95.44,541.061,538.683,0.0
